OBJECT_NAME,OBJECT_ID,EPOCH,MEAN_MOTION,ECCENTRICITY,INCLINATION,RA_OF_ASC_NODE,ARG_OF_PERICENTER,MEAN_ANOMALY,EPHEMERIS_TYPE,CLASSIFICATION_TYPE,NORAD_CAT_ID,ELEMENT_SET_NO,REV_AT_EPOCH,BSTAR,MEAN_MOTION_DOT,MEAN_MOTION_DDOT
LQSAT,2015-057A,2026-03-01T12:51:04.224384,14.76616883,.0015482,97.6654,59.2733,262.0606,97.8847,0,U,40958,999,55942,.86763E-4,.559E-5,0
LINGQIAO VIDEO A,2015-057B,2026-03-01T12:46:49.448064,14.77219816,.001522,97.6602,60.6745,259.4627,100.4869,0,U,40959,999,55951,.94596E-4,.623E-5,0
LINGQIAO VIDEO B,2015-057C,2026-03-01T12:23:47.354784,14.77313626,.0015359,97.6574,61.8491,259.5653,100.3828,0,U,40960,999,55955,.19264E-3,.1322E-4,0
JILIN-1,2015-057D,2026-03-01T12:14:28.592160,14.77975376,.001553,97.6513,65.2392,252.6753,107.2759,0,U,40961,999,55970,.13517E-3,.928E-5,0
FOX-1A (AO-85),2015-058D,2026-02-28T22:27:45.591840,14.90263896,.012936,64.7738,255.2193,99.4296,262.1465,0,U,40967,999,9743,.36968E-3,.4045E-4,0
SINOD-D 1,2015-058E,2026-03-01T11:29:22.167456,14.94932859,.0117667,64.7733,235.9716,96.6228,264.8295,0,U,40968,999,10055,.54053E-3,.6625E-4,0
ELEKTRO-L 2,2015-074A,2026-03-01T08:57:03.678336,1.00270670,.0003479,6.4225,71.8480,234.1402,332.9412,0,U,41105,999,3742,0,-.133E-5,0
DAMPE,2015-078A,2026-03-01T13:29:50.520192,15.30463312,.0013852,97.4579,65.5146,96.2859,263.9960,0,U,41173,999,56808,.57716E-4,.1626E-4,0
ORBCOMM FM114,2015-081A,2026-03-01T05:51:02.191968,14.58713833,.0001317,47.0042,152.2956,58.7495,301.3520,0,U,41179,999,54199,.18937E-3,.721E-5,0
ORBCOMM FM110,2015-081D,2026-02-28T13:09:12.791808,14.58710946,.00035856,47.0015,155.0589,283.7005,76.3481,0,U,41182,999,54176,.23916267E-3,.956E-5,0
ORBCOMM FM112,2015-081F,2026-03-01T09:46:50.305152,14.58712549,.0001077,46.9992,59.8121,36.9498,323.1462,0,U,41184,999,54321,.21406E-3,.838E-5,0
ORBCOMM FM113,2015-081G,2026-03-01T01:00:52.501248,14.58712705,.0000668,47.0006,61.9055,37.7200,322.3732,0,U,41185,999,54314,.18807894E-3,.715E-5,0
ORBCOMM FM108,2015-081J,2026-03-01T03:24:23.203872,14.58722986,.00022911,47.0062,332.9735,44.2282,315.8786,0,U,41187,999,54430,.26998133E-3,.1101E-4,0
ORBCOMM FM117,2015-081K,2026-03-01T02:34:43.051872,14.58714979,.00025965,47.0024,331.8059,55.2083,304.9046,0,U,41188,999,54434,.25499368E-3,.1031E-4,0
ORBCOMM FM116,2015-081L,2026-03-01T08:41:32.205984,14.58706901,.0002721,47.0025,60.3828,283.9057,76.1526,0,U,41189,999,54319,.23347E-3,.929E-5,0
CHUBUSAT-2,2016-012B,2026-03-01T01:52:49.063296,15.19598670,.00089918,30.9989,310.2196,51.3875,308.7570,0,U,41338,999,55195,.35377068E-3,.7848E-4,0
CHUBUSAT-3,2016-012C,2026-03-01T02:40:32.976192,15.17502766,.00092499,31.0062,317.1186,43.1310,317.0053,0,U,41339,999,55176,.30984299E-3,.6483E-4,0
HORYU-4,2016-012D,2026-03-01T11:30:48.374784,15.61253665,.0001743,30.9916,125.3653,59.5122,300.5703,0,U,41340,999,55382,.1043E-2,.93001E-3,0
ZIYUAN 3-02 (ZY 3-02),2016-033A,2026-03-01T12:27:41.637888,15.21412428,.0011508,97.3921,138.3216,330.8910,29.1683,0,U,41556,999,54161,.34374E-3,.766E-4,0
CARTOSAT-2C,2016-040A,2026-03-01T12:06:16.062912,15.19274466,.0010198,97.4633,121.8878,148.9163,211.2677,0,U,41599,999,53736,.41261E-3,.8649E-4,0
LAPAN-A3,2016-040E,2026-03-01T12:51:26.990784,15.32292069,.0011926,97.1471,60.2908,49.2153,311.0122,0,U,41603,999,53832,.15189E-3,.467E-4,0
GAOFEN-3,2016-049A,2026-03-01T13:09:29.644992,14.42214380,.0001596,98.4053,69.9428,95.8863,264.2509,0,U,41727,999,50313,.88191E-4,.247E-5,0
PRATHAM,2016-059A,2026-03-01T11:37:30.508896,14.67020631,.0030787,97.8312,62.0970,199.2309,160.7736,0,U,41783,999,50372,.17784E-3,.957E-5,0
ALSAT-1N,2016-059G,2026-03-01T12:14:10.564800,14.69093293,.0026106,97.8033,68.6638,169.0395,191.1386,0,U,41789,999,50419,.20103E-3,.114E-4,0
CAS-2T & KS-1Q,2016-066G,2026-03-01T04:28:57.703008,14.44437526,.03438465,98.3903,137.1302,97.1927,266.8483,0,U,41847,999,48920,.2390399E-3,.1654E-4,0
YUNHAI-1 01,2016-068A,2026-03-01T13:04:56.564832,14.32661011,.0005397,98.5891,72.5300,5.0949,355.0289,0,U,41857,999,48641,.20022E-3,.5E-5,0
RESOURCESAT-2A,2016-074A,2026-03-01T12:37:53.630688,14.21598071,.0002844,98.7625,134.8767,53.0299,307.1138,0,U,41877,999,47900,.237E-3,.475E-5,0
TANSAT,2016-081A,2026-03-01T12:10:04.062144,14.59861324,.0019372,98.5349,57.5993,283.3464,76.5575,0,U,41898,999,48891,.13208E-3,.583E-5,0
JILIN-1 03,2017-002B,2026-03-01T12:04:27.530688,15.38683022,.000572,97.1989,69.3010,179.9655,180.1592,0,U,41914,999,50528,.44081E-3,.16791E-3,0
CARTOSAT-2D,2017-008A,2026-03-01T11:19:49.878048,15.19287760,.0004272,97.4258,121.7135,250.5883,109.4890,0,U,41948,999,50122,.29976E-3,.6259E-4,0
CARTOSAT-2E,2017-036C,2026-03-01T11:44:09.587904,15.19233522,.0003152,97.4426,121.9915,334.4202,25.6876,0,U,42767,999,48179,.45179E-3,.9456E-4,0
