LQSAT                   
1 40958U 15057A   26060.53546556  .00000559  00000+0  86763-4 0  9999
2 40958  97.6654  59.2733 0015482 262.0606  97.8847 14.76616883559424
LINGQIAO VIDEO A        
1 40959U 15057B   26060.53251676  .00000623  00000+0  94596-4 0  9991
2 40959  97.6602  60.6745 0015220 259.4627 100.4869 14.77219816559511
LINGQIAO VIDEO B        
1 40960U 15057C   26060.51652031  .00001322  00000+0  19264-3 0  9996
2 40960  97.6574  61.8491 0015359 259.5653 100.3828 14.77313626559557
JILIN-1                 
1 40961U 15057D   26060.51005315  .00000928  00000+0  13517-3 0  9990
2 40961  97.6513  65.2392 0015530 252.6753 107.2759 14.77975376559707
FOX-1A (AO-85)          
1 40967U 15058D   26059.93594435  .00004045  00000+0  36968-3 0  9996
2 40967  64.7738 255.2193 0129360  99.4296 262.1465 14.90263896 97437
SINOD-D 1               
1 40968U 15058E   26060.47872879  .00006625  00000+0  54053-3 0  9990
2 40968  64.7733 235.9716 0117667  96.6228 264.8295 14.94932859100554
ELEKTRO-L 2             
1 41105U 15074A   26060.37295924 -.00000133  00000+0  00000+0 0  9999
2 41105   6.4225  71.8480 0003479 234.1402 332.9412  1.00270670 37422
DAMPE                   
1 41173U 15078A   26060.56239028  .00001626  00000+0  57716-4 0  9990
2 41173  97.4579  65.5146 0013852  96.2859 263.9960 15.30463312568084
ORBCOMM FM114           
1 41179U 15081A   26060.24377537  .00000721  00000+0  18937-3 0  9999
2 41179  47.0042 152.2956 0001317  58.7495 301.3520 14.58713833541996
ORBCOMM FM110           
1 41182U 15081D   26059.54806472  .00000956  00000+0  23916-3 0  9992
2 41182  47.0015 155.0589 0003585 283.7005  76.3481 14.58710946541761
ORBCOMM FM112           
1 41184U 15081F   26060.40752668  .00000838  00000+0  21406-3 0  9999
2 41184  46.9992  59.8121 0001077  36.9498 323.1462 14.58712549543211
ORBCOMM FM113           
1 41185U 15081G   26060.04227432  .00000715  00000+0  18808-3 0  9992
2 41185  47.0006  61.9055 0000668  37.7200 322.3732 14.58712705543142
ORBCOMM FM108           
1 41187U 15081J   26060.14193523  .00001101  00000+0  26998-3 0  9997
2 41187  47.0062 332.9735 0002291  44.2282 315.8786 14.58722986544306
ORBCOMM FM117           
1 41188U 15081K   26060.10744273  .00001031  00000+0  25499-3 0  9995
2 41188  47.0024 331.8059 0002596  55.2083 304.9046 14.58714979544346
ORBCOMM FM116           
1 41189U 15081L   26060.36217831  .00000929  00000+0  23347-3 0  9994
2 41189  47.0025  60.3828 0002721 283.9057  76.1526 14.58706901543196
CHUBUSAT-2              
1 41338U 16012B   26060.07834564  .00007848  00000+0  35377-3 0  9994
2 41338  30.9989 310.2196 0008991  51.3875 308.7570 15.19598670551953
CHUBUSAT-3              
1 41339U 16012C   26060.11149278  .00006483  00000+0  30984-3 0  9994
2 41339  31.0062 317.1186 0009249  43.1310 317.0053 15.17502766551760
HORYU-4                 
1 41340U 16012D   26060.47972656  .00093001  00000+0  10430-2 0  9994
2 41340  30.9916 125.3653 0001743  59.5122 300.5703 15.61253665553827
ZIYUAN 3-02 (ZY 3-02)   
1 41556U 16033A   26060.51923192  .00007660  00000+0  34374-3 0  9992
2 41556  97.3921 138.3216 0011508 330.8910  29.1683 15.21412428541613
CARTOSAT-2C             
1 41599U 16040A   26060.50435258  .00008649  00000+0  41261-3 0  9998
2 41599  97.4633 121.8878 0010198 148.9163 211.2677 15.19274466537363
LAPAN-A3                
1 41603U 16040E   26060.53572906  .00004670  00000+0  15189-3 0  9999
2 41603  97.1471  60.2908 0011926  49.2153 311.0122 15.32292069538323
GAOFEN-3                
1 41727U 16049A   26060.54825978  .00000247  00000+0  88191-4 0  9996
2 41727  98.4053  69.9428 0001596  95.8863 264.2509 14.42214380503139
PRATHAM                 
1 41783U 16059A   26060.48438089  .00000957  00000+0  17784-3 0  9992
2 41783  97.8312  62.0970 0030787 199.2309 160.7736 14.67020631503724
ALSAT-1N                
1 41789U 16059G   26060.50984450  .00001140  00000+0  20103-3 0  9993
2 41789  97.8033  68.6638 0026106 169.0395 191.1386 14.69093293504190
CAS-2T & KS-1Q          
1 41847U 16066G   26060.18677897  .00001654  00000+0  23904-3 0  9996
2 41847  98.3903 137.1302 0343846  97.1927 266.8483 14.44437526489208
YUNHAI-1 01             
1 41857U 16068A   26060.54509913  .00000500  00000+0  20022-3 0  9999
2 41857  98.5891  72.5300 0005397   5.0949 355.0289 14.32661011486415
RESOURCESAT-2A          
1 41877U 16074A   26060.52631517  .00000475  00000+0  23700-3 0  9999
2 41877  98.7625 134.8767 0002844  53.0299 307.1138 14.21598071479009
TANSAT                  
1 41898U 16081A   26060.50699146  .00000583  00000+0  13208-3 0  9992
2 41898  98.5349  57.5993 0019372 283.3464  76.5575 14.59861324488918
JILIN-1 03              
1 41914U 17002B   26060.50309642  .00016791  00000+0  44081-3 0  9995
2 41914  97.1989  69.3010 0005720 179.9655 180.1592 15.38683022505283
CARTOSAT-2D             
1 41948U 17008A   26060.47210507  .00006259  00000+0  29976-3 0  9999
2 41948  97.4258 121.7135 0004272 250.5883 109.4890 15.19287760501226
CARTOSAT-2E             
1 42767U 17036C   26060.48899986  .00009456  00000+0  45179-3 0  9990
2 42767  97.4426 121.9915 0003152 334.4202  25.6876 15.19233522481793
